{"type": "FeatureCollection", "features": [ {"type": "Feature", "properties": {"norad_id": 30224, "name": "FENGYUN 1C DEB", "group": "fengyun-1c-debris", "lat": -37.59834581559135, "lon": 39.472539721608676, "alt_km": 854.4333086527131, "timestamp": "2025-12-19T04:59:48.580895+00:00", "meta": {"OBJECT_NAME": "FENGYUN 1C DEB", "OBJECT_ID": "1999-025WH", "EPOCH": "2025-12-18T14:22:13.334016", "MEAN_MOTION": 13.89871659, "ECCENTRICITY": 0.01110132, "INCLINATION": 99.4833, "RA_OF_ASC_NODE": 31.4565, "ARG_OF_PERICENTER": 327.5312, "MEAN_ANOMALY": 186.7366, "EPHEMERIS_TYPE": 0, "CLASSIFICATION_TYPE": "U", "NORAD_CAT_ID": 30224, "ELEMENT_SET_NO": 999, "REV_AT_EPOCH": 95822, "BSTAR": 0.00030987583, "MEAN_MOTION_DOT": 3.53e-06, "MEAN_MOTION_DDOT": 0}, "tle": {"line1": "1 30224U 99025WH  25352.59876544  .00000353  00000+0  30988-3 0  9992", "line2": "2 30224  99.4833  31.4565 0111013 327.5312 186.7366 13.89871659958223"}}, "geometry": {"type": "Point", "coordinates": [39.472539721608676, -37.59834581559135]}}, {"type": "Feature", "properties": {"norad_id": 30225, "name": "FENGYUN 1C DEB", "group": "fengyun-1c-debris", "lat": -1.5748885276643596, "lon": 20.03144240180578, "alt_km": 818.2440821195933, "timestamp": "2025-12-19T04:59:48.580905+00:00", "meta": {"OBJECT_NAME": "FENGYUN 1C DEB", "OBJECT_ID": "1999-025WJ", "EPOCH": "2025-12-18T08:42:51.547968", "MEAN_MOTION": 14.15187999, "ECCENTRICITY": 0.01003951, "INCLINATION": 98.6593, "RA_OF_ASC_NODE": 18.9709, "ARG_OF_PERICENTER": 70.0047, "MEAN_ANOMALY": 306.4756, "EPHEMERIS_TYPE": 0, "CLASSIFICATION_TYPE": "U", "NORAD_CAT_ID": 30225, "ELEMENT_SET_NO": 999, "REV_AT_EPOCH": 97616, "BSTAR": 0.00014303831, "MEAN_MOTION_DOT": 2.5e-06, "MEAN_MOTION_DDOT": 0}, "tle": {"line1": "1 30225U 99025WJ  25352.36309662  .00000250  00000+0  14304-3 0  9990", "line2": "2 30225  98.6593  18.9709 0100395  70.0047 306.4756 14.15187999976168"}}, "geometry": {"type": "Point", "coordinates": [20.03144240180578, -1.5748885276643596]}}, {"type": "Feature", "properties": {"norad_id": 30229, "name": "FENGYUN 1C DEB", "group": "fengyun-1c-debris", "lat": -33.87356022642081, "lon": -132.70745081132003, "alt_km": 722.7522175168442, "timestamp": "2025-12-19T04:59:48.580915+00:00", "meta": {"OBJECT_NAME": "FENGYUN 1C DEB", "OBJECT_ID": "1999-025WN", "EPOCH": "2025-12-18T17:03:40.293792", "MEAN_MOTION": 14.60642856, "ECCENTRICITY": 0.00371246, "INCLINATION": 99.0624, "RA_OF_ASC_NODE": 52.8996, "ARG_OF_PERICENTER": 22.204, "MEAN_ANOMALY": 98.6065, "EPHEMERIS_TYPE": 0, "CLASSIFICATION_TYPE": "U", "NORAD_CAT_ID": 30229, "ELEMENT_SET_NO": 999, "REV_AT_EPOCH": 99013, "BSTAR": 0.0013019106, "MEAN_MOTION_DOT": 6.345e-05, "MEAN_MOTION_DDOT": 0}, "tle": {"line1": "1 30229U 99025WN  25352.71088303  .00006345  00000+0  13019-2 0  9991", "line2": "2 30229  99.0624  52.8996 0037124  22.2040  98.6065 14.60642856990132"}}, "geometry": {"type": "Point", "coordinates": [-132.70745081132003, -33.87356022642081]}}, {"type": "Feature", "properties": {"norad_id": 30231, "name": "FENGYUN 1C DEB", "group": "fengyun-1c-debris", "lat": 21.54361693333303, "lon": 34.3393618604502, "alt_km": 762.3938152020455, "timestamp": "2025-12-19T04:59:48.580925+00:00", "meta": {"OBJECT_NAME": "FENGYUN 1C DEB", "OBJECT_ID": "1999-025WQ", "EPOCH": "2025-12-18T01:57:11.569824", "MEAN_MOTION": 14.11656571, "ECCENTRICITY": 0.01281774, "INCLINATION": 98.8047, "RA_OF_ASC_NODE": 36.7415, "ARG_OF_PERICENTER": 14.1074, "MEAN_ANOMALY": 44.2789, "EPHEMERIS_TYPE": 0, "CLASSIFICATION_TYPE": "U", "NORAD_CAT_ID": 30231, "ELEMENT_SET_NO": 999, "REV_AT_EPOCH": 97095, "BSTAR": 0.0005055034, "MEAN_MOTION_DOT": 9.5e-06, "MEAN_MOTION_DDOT": 0}, "tle": {"line1": "1 30231U 99025WQ  25352.08138391  .00000950  00000+0  50550-3 0  9995", "line2": "2 30231  98.8047  36.7415 0128177  14.1074  44.2789 14.11656571970957"}}, "geometry": {"type": "Point", "coordinates": [34.3393618604502, 21.54361693333303]}}, {"type": "Feature", "properties": {"norad_id": 30232, "name": "FENGYUN 1C DEB", "group": "fengyun-1c-debris", "lat": 81.04803317377947, "lon": 89.95301279054968, "alt_km": 724.2500174113729, "timestamp": "2025-12-19T04:59:48.580936+00:00", "meta": {"OBJECT_NAME": "FENGYUN 1C DEB", "OBJECT_ID": "1999-025WR", "EPOCH": "2025-12-18T12:18:29.128032", "MEAN_MOTION": 14.63635746, "ECCENTRICITY": 0.01356317, "INCLINATION": 98.693, "RA_OF_ASC_NODE": 192.9896, "ARG_OF_PERICENTER": 331.9514, "MEAN_ANOMALY": 57.0571, "EPHEMERIS_TYPE": 0, "CLASSIFICATION_TYPE": "U", "NORAD_CAT_ID": 30232, "ELEMENT_SET_NO": 999, "REV_AT_EPOCH": 99836, "BSTAR": 0.00060568726, "MEAN_MOTION_DOT": 3.537e-05, "MEAN_MOTION_DDOT": 0}, "tle": {"line1": "1 30232U 99025WR  25352.51283713  .00003537  00000+0  60569-3 0  9998", "line2": "2 30232  98.6930 192.9896 0135631 331.9514  57.0571 14.63635746998361"}}, "geometry": {"type": "Point", "coordinates": [89.95301279054968, 81.04803317377947]}}, {"type": "Feature", "properties": {"norad_id": 30234, "name": "FENGYUN 1C DEB", "group": "fengyun-1c-debris", "lat": -14.891926525703, "lon": 6.111727015286405, "alt_km": 825.1567630232057, "timestamp": "2025-12-19T04:59:48.580946+00:00", "meta": {"OBJECT_NAME": "FENGYUN 1C DEB", "OBJECT_ID": "1999-025WT", "EPOCH": "2025-12-18T14:24:06.573312", "MEAN_MOTION": 14.1687236, "ECCENTRICITY": 0.00669121, "INCLINATION": 98.6337, "RA_OF_ASC_NODE": 3.2059, "ARG_OF_PERICENTER": 58.5273, "MEAN_ANOMALY": 67.1071, "EPHEMERIS_TYPE": 0, "CLASSIFICATION_TYPE": "U", "NORAD_CAT_ID": 30234, "ELEMENT_SET_NO": 999, "REV_AT_EPOCH": 97539, "BSTAR": 0.00028585691, "MEAN_MOTION_DOT": 5.44e-06, "MEAN_MOTION_DDOT": 0}, "tle": {"line1": "1 30234U 99025WT  25352.60007608  .00000544  00000+0  28586-3 0  9995", "line2": "2 30234  98.6337   3.2059 0066912  58.5273  67.1071 14.16872360975396"}}, "geometry": {"type": "Point", "coordinates": [6.111727015286405, -14.891926525703]}}, {"type": "Feature", "properties": {"norad_id": 30235, "name": "FENGYUN 1C DEB", "group": "fengyun-1c-debris", "lat": 61.648308316957, "lon": -152.23020507287646, "alt_km": 881.1935726542042, "timestamp": "2025-12-19T04:59:48.580956+00:00", "meta": {"OBJECT_NAME": "FENGYUN 1C DEB", "OBJECT_ID": "1999-025WU", "EPOCH": "2025-12-18T13:42:14.628960", "MEAN_MOTION": 14.08786229, "ECCENTRICITY": 0.01535864, "INCLINATION": 98.7491, "RA_OF_ASC_NODE": 10.5694, "ARG_OF_PERICENTER": 221.9869, "MEAN_ANOMALY": 266.9205, "EPHEMERIS_TYPE": 0, "CLASSIFICATION_TYPE": "U", "NORAD_CAT_ID": 30235, "ELEMENT_SET_NO": 999, "REV_AT_EPOCH": 96975, "BSTAR": 0.00032440144, "MEAN_MOTION_DOT": 5.8e-06, "MEAN_MOTION_DDOT": 0}, "tle": {"line1": "1 30235U 99025WU  25352.57100265  .00000580  00000+0  32440-3 0  9999", "line2": "2 30235  98.7491  10.5694 0153586 221.9869 266.9205 14.08786229969756"}}, "geometry": {"type": "Point", "coordinates": [-152.23020507287646, 61.648308316957]}}, {"type": "Feature", "properties": {"norad_id": 30237, "name": "FENGYUN 1C DEB", "group": "fengyun-1c-debris", "lat": 76.66721224194933, "lon": 55.2032486238709, "alt_km": 757.3470824894939, "timestamp": "2025-12-19T04:59:48.580966+00:00", "meta": {"OBJECT_NAME": "FENGYUN 1C DEB", "OBJECT_ID": "1999-025WW", "EPOCH": "2025-12-18T19:14:11.315904", "MEAN_MOTION": 14.40972404, "ECCENTRICITY": 0.00144541, "INCLINATION": 98.8254, "RA_OF_ASC_NODE": 95.7455, "ARG_OF_PERICENTER": 286.3279, "MEAN_ANOMALY": 205.1367, "EPHEMERIS_TYPE": 0, "CLASSIFICATION_TYPE": "U", "NORAD_CAT_ID": 30237, "ELEMENT_SET_NO": 999, "REV_AT_EPOCH": 97785, "BSTAR": 0.0017454771, "MEAN_MOTION_DOT": 5.571e-05, "MEAN_MOTION_DDOT": 0}, "tle": {"line1": "1 30237U 99025WW  25352.80151986  .00005571  00000+0  17455-2 0  9996", "line2": "2 30237  98.8254  95.7455 0014454 286.3279 205.1367 14.40972404977858"}}, "geometry": {"type": "Point", "coordinates": [55.2032486238709, 76.66721224194933]}}, {"type": "Feature", "properties": {"norad_id": 30239, "name": "FENGYUN 1C DEB", "group": "fengyun-1c-debris", "lat": 75.14568643719777, "lon": -0.9624934889848876, "alt_km": 1668.0589936989672, "timestamp": "2025-12-19T04:59:48.580976+00:00", "meta": {"OBJECT_NAME": "FENGYUN 1C DEB", "OBJECT_ID": "1999-025WY", "EPOCH": "2025-12-18T09:32:05.789472", "MEAN_MOTION": 11.38194537, "ECCENTRICITY": 0.13494726, "INCLINATION": 99.57, "RA_OF_ASC_NODE": 139.0012, "ARG_OF_PERICENTER": 20.3411, "MEAN_ANOMALY": 344.6467, "EPHEMERIS_TYPE": 0, "CLASSIFICATION_TYPE": "U", "NORAD_CAT_ID": 30239, "ELEMENT_SET_NO": 999, "REV_AT_EPOCH": 54599, "BSTAR": 0.021435502, "MEAN_MOTION_DOT": 7.208e-05, "MEAN_MOTION_DDOT": 0}, "tle": {"line1": "1 30239U 99025WY  25352.39728923  .00007208  00000+0  21436-1 0  9995", "line2": "2 30239  99.5700 139.0012 1349472  20.3411 344.6467 11.38194537545994"}}, "geometry": {"type": "Point", "coordinates": [-0.9624934889848876, 75.14568643719777]}}, {"type": "Feature", "properties": {"norad_id": 30241, "name": "FENGYUN 1C DEB", "group": "fengyun-1c-debris", "lat": -2.044816187003484, "lon": 126.52417029305157, "alt_km": 818.0142109073013, "timestamp": "2025-12-19T04:59:48.580986+00:00", "meta": {"OBJECT_NAME": "FENGYUN 1C DEB", "OBJECT_ID": "1999-025XA", "EPOCH": "2025-12-18T22:43:39.467712", "MEAN_MOTION": 14.09553357, "ECCENTRICITY": 0.01466941, "INCLINATION": 99.1488, "RA_OF_ASC_NODE": 125.9291, "ARG_OF_PERICENTER": 63.8512, "MEAN_ANOMALY": 50.9273, "EPHEMERIS_TYPE": 0, "CLASSIFICATION_TYPE": "U", "NORAD_CAT_ID": 30241, "ELEMENT_SET_NO": 999, "REV_AT_EPOCH": 96999, "BSTAR": 0.00018802439, "MEAN_MOTION_DOT": 3.18e-06, "MEAN_MOTION_DDOT": 0}, "tle": {"line1": "1 30241U 99025XA  25352.94698458  .00000318  00000+0  18802-3 0  9998", "line2": "2 30241  99.1488 125.9291 0146694  63.8512  50.9273 14.09553357969995"}}, "geometry": {"type": "Point", "coordinates": [126.52417029305157, -2.044816187003484]}}]}